LEMUR-1                 
1 40044U 14033AL  26170.92136689  .00001571  00000+0  18540-3 0  9997
2 40044  97.7881 320.6656 0049574  69.9142 290.7399 14.85255541645871
LEMUR-2-GREENBERG       
1 42837U 17042N   26171.28884193  .00013965  00000+0  46213-3 0  9990
2 42837  97.3826 351.8988 0008179   2.5682 357.5599 15.31409107488869
LEMUR-2-ANDIS           
1 42838U 17042P   26170.98505967  .00018631  00000+0  55099-3 0  9993
2 42838  97.3675 351.7897 0007931   2.3579 357.7701 15.34936042488883
LEMUR-2-MONSON          
1 42839U 17042Q   26170.06014849  .00010941  00000+0  40227-3 0  9990
2 42839  97.4081 350.6452 0006002 358.9199   1.2027 15.28049146488455
LEMUR-2-FURIAUS         
1 42840U 17042R   26171.21942492  .00015062  00000+0  51497-3 0  9994
2 42840  97.3778 349.7781 0007996  59.7014 300.5017 15.30336793488676
LEMUR-2-PETERG          
1 42841U 17042S   26170.97095652  .00018094  00000+0  55217-3 0  9996
2 42841  97.3995 356.0050 0002985 345.2222  14.8933 15.33975062488869
LEMUR-2-DEMBITZ         
1 42842U 17042T   26170.06227203  .00012966  00000+0  44389-3 0  9996
2 42842  97.3827 351.6540 0006568  22.4740 337.6787 15.30339757488639
LEMUR-2-ZACHARY         
1 42845U 17042W   26170.96538516  .00040236  00000+0  70521-3 0  9998
2 42845  97.3597   2.6609 0002667  21.5962 338.5401 15.50470213489636
LEMUR-2-AMANDA-SVANTE   
1 48269U 21034B   26171.16173717  .00027226  00000+0  81656-3 0  9996
2 48269  97.5757 249.5260 0002674 198.4440 161.6706 15.34444227281518
LEMUR-2-SPECIAL-K       
1 48273U 21034F   26171.21881133  .00143897  00000+0  14311-2 0  9991
2 48273  97.5647 258.2969 0004589 225.4698 134.6186 15.65252015282167
LEMUR-2-EMBRIONOVIS     
1 56970U 23084AQ  26170.93505665  .00011735  00000+0  31990-3 0  9990
2 56970  97.6297 315.2397 0007559 308.8879  51.1690 15.37606692168101
LEMUR-2-DEVERILL-M-T    
1 57391U 23100F   26171.09406221  .00021591  00000+0  54510-3 0  9997
2 57391  99.4467 210.6914 0006088  40.7572 319.4121 15.39872126161694
LEMUR-2-BASS            
1 58259U 23174D   26171.19315259  .00015183  00000+0  34382-3 0  9998
2 58259  97.3842 255.9477 0007906 152.9669 207.1992 15.43179548145820
LEMUR-2-JK0903EM1407    
1 58336U 23174CJ  26171.23907761  .00023827  00000+0  39947-3 0  9990
2 58336  97.3919 261.7953 0005587 111.4011 248.7838 15.51815319146204
LEMUR-2-MJR092620       
1 58340U 23174CN  26171.20298048  .00016613  00000+0  35405-3 0  9993
2 58340  97.3972 261.2875 0007082 108.7940 251.4078 15.44969470146115
LEMUR-2-NIMBUS2000      
1 58899U 24022A   26171.00271725  .00017864  00000+0  44734-3 0  9990
2 58899  97.4107  21.0386 0010406 107.3366 252.9019 15.40083419132702
LEMUR-2-VALHALLA        
1 58900U 24022B   26171.06452595  .00014455  00000+0  36650-3 0  9996
2 58900  97.4104  21.0906 0010891 103.4124 256.8336 15.39746216132712
LEMUR-2-CAEL            
1 58903U 24022E   26171.07191526  .00015371  00000+0  37337-3 0  9995
2 58903  97.4087  22.0390 0009235  89.0818 271.1487 15.41054517132785
LEMUR-2-JOHNNYTRUONG    
1 59146U 24043BA  26171.16377608  .00035820  00000+0  43243-3 0  9999
2 59146  97.5385 323.0514 0004894 167.0618 193.0765 15.60659992128505
LEMUR-2-TOMATOKECHUP    
1 60471U 24149D   26171.23424261  .00009043  00000+0  25956-3 0  9994
2 60471  97.3792 253.2890 0001698 170.5743 189.5533 15.36085472102634
LEMUR-2-STELLA          
1 60533U 24149BT  26171.19253807  .00009138  00000+0  53785-3 0  9990
2 60533  97.6729 253.6607 0001428  96.0742 264.0650 15.11860730100951
LEMUR-2-MARHISYAM       
1 60536U 24149BW  26171.24015695  .00008834  00000+0  52803-3 0  9992
2 60536  97.6877 254.1605 0003309 112.1725 247.9857 15.11312446100947
LEMUR-2-AHMED-ASRAR     
1 60576U 24149DN  26171.20521526  .00009445  00000+0  54203-3 0  9992
2 60576  97.6999 256.2302 0001528  34.3772 325.7557 15.12767841101027
LEMUR-2-LLOYD           
1 60577U 24149DP  26171.22464490  .00008514  00000+0  53795-3 0  9992
2 60577  97.6744 252.3554 0005124 131.3141 228.8530 15.09289702100851
LEMUR-2-SQUIRRELCOMM    
1 60578U 24149DQ  26170.71191900  .00005489  00000+0  36888-3 0  9991
2 60578  97.6706 251.6151 0006107  53.2688 306.9099 15.07173606100788
LEMUR-2-SIERRINI        
1 60579U 24149DR  26171.19809578  .00008878  00000+0  53511-3 0  9999
2 60579  97.6834 253.8036 0006030 156.6863 203.4641 15.10997152100918
LEMUR-2-WILSON          
1 62694U 25009CP  26171.17348258  .00001990  00000+0  18637-3 0  9994
2 62694  97.7027 249.5857 0004107  50.1741 309.9840 14.95177642 77802
LEMUR-2-STAR-FOX        
1 62696U 25009CR  26170.75664247  .00006185  00000+0  46976-3 0  9996
2 62696  97.6953 252.3469 0004084 105.6897 254.4778 15.02534850 77940
LEMUR-2-ARIANNA         
1 62699U 25009CU  26171.22118960  .00005922  00000+0  45010-3 0  9994
2 62699  97.6891 252.5802 0004518 109.8072 250.3640 15.02521287 78012
