OBJECT_NAME,OBJECT_ID,EPOCH,MEAN_MOTION,ECCENTRICITY,INCLINATION,RA_OF_ASC_NODE,ARG_OF_PERICENTER,MEAN_ANOMALY,EPHEMERIS_TYPE,CLASSIFICATION_TYPE,NORAD_CAT_ID,ELEMENT_SET_NO,REV_AT_EPOCH,BSTAR,MEAN_MOTION_DOT,MEAN_MOTION_DDOT
LEMUR-1,2014-033AL,2026-06-19T22:06:46.099296,14.85255541,.00495744,97.7881,320.6656,69.9142,290.7399,0,U,40044,999,64587,.18540265E-3,.1571E-4,0
LEMUR-2-GREENBERG,2017-042N,2026-06-20T06:55:55.942752,15.31409107,.00081796,97.3826,351.8988,2.5682,357.5599,0,U,42837,999,48886,.46213117E-3,.13965E-3,0
LEMUR-2-ANDIS,2017-042P,2026-06-19T23:38:29.155488,15.34936042,.00079312,97.3675,351.7897,2.3579,357.7701,0,U,42838,999,48888,.55099403E-3,.18631E-3,0
LEMUR-2-MONSON,2017-042Q,2026-06-19T01:26:36.829536,15.28049146,.00060025,97.4081,350.6452,358.9199,1.2027,0,U,42839,999,48845,.40226899E-3,.10941E-3,0
LEMUR-2-FURIAUS,2017-042R,2026-06-20T05:15:58.313088,15.30336793,.00079967,97.3778,349.7781,59.7014,300.5017,0,U,42840,999,48867,.51497447E-3,.15062E-3,0
LEMUR-2-PETERG,2017-042S,2026-06-19T23:18:10.643328,15.33975062,.00029855,97.3995,356.0050,345.2222,14.8933,0,U,42841,999,48886,.55216744E-3,.18094E-3,0
LEMUR-2-DEMBITZ,2017-042T,2026-06-19T01:29:40.303392,15.30339757,.0006568,97.3827,351.6540,22.4740,337.6787,0,U,42842,999,48863,.44388642E-3,.12966E-3,0
LEMUR-2-ZACHARY,2017-042W,2026-06-19T23:10:09.277824,15.50470213,.00026676,97.3597,2.6609,21.5962,338.5401,0,U,42845,999,48963,.70521304E-3,.40236E-3,0
LEMUR-2-AMANDA-SVANTE,2021-034B,2026-06-20T03:52:54.091488,15.34444227,.00026747,97.5757,249.5260,198.4440,161.6706,0,U,48269,999,28151,.81655772E-3,.27226E-3,0
LEMUR-2-SPECIAL-K,2021-034F,2026-06-20T05:15:05.298912,15.65252015,.00045893,97.5647,258.2969,225.4698,134.6186,0,U,48273,999,28216,.14310769E-2,.143897E-2,0
LEMUR-2-EMBRIONOVIS,2023-084AQ,2026-06-19T22:26:28.894560,15.37606692,.00075599,97.6297,315.2397,308.8879,51.1690,0,U,56970,999,16810,.31990091E-3,.11735E-3,0
LEMUR-2-DEVERILL-M-T,2023-100F,2026-06-20T02:15:26.974944,15.39872126,.00060882,99.4467,210.6914,40.7572,319.4121,0,U,57391,999,16169,.54510337E-3,.21591E-3,0
LEMUR-2-BASS,2023-174D,2026-06-20T04:38:08.383776,15.43179548,.00079069,97.3842,255.9477,152.9669,207.1992,0,U,58259,999,14582,.34381865E-3,.15183E-3,0
LEMUR-2-JK0903EM1407,2023-174CJ,2026-06-20T05:44:16.305504,15.51815319,.00055875,97.3919,261.7953,111.4011,248.7838,0,U,58336,999,14620,.39946716E-3,.23827E-3,0
LEMUR-2-MJR092620,2023-174CN,2026-06-20T04:52:17.513472,15.44969470,.0007082,97.3972,261.2875,108.7940,251.4078,0,U,58340,999,14611,.35404755E-3,.16613E-3,0
LEMUR-2-NIMBUS2000,2024-022A,2026-06-20T00:03:54.770400,15.40083419,.00104068,97.4107,21.0386,107.3366,252.9019,0,U,58899,999,13270,.44733695E-3,.17864E-3,0
LEMUR-2-VALHALLA,2024-022B,2026-06-20T01:32:55.042080,15.39746216,.00108911,97.4104,21.0906,103.4124,256.8336,0,U,58900,999,13271,.36649739E-3,.14455E-3,0
LEMUR-2-CAEL,2024-022E,2026-06-20T01:43:33.478464,15.41054517,.00092358,97.4087,22.0390,89.0818,271.1487,0,U,58903,999,13278,.37337098E-3,.15371E-3,0
LEMUR-2-JOHNNYTRUONG,2024-043BA,2026-06-20T03:55:50.253312,15.60659992,.00048944,97.5385,323.0514,167.0618,193.0765,0,U,59146,999,12850,.4324266E-3,.3582E-3,0
LEMUR-2-TOMATOKECHUP,2024-149D,2026-06-20T05:37:18.561504,15.36085472,.00016985,97.3792,253.2890,170.5743,189.5533,0,U,60471,999,10263,.25956316E-3,.9043E-4,0
LEMUR-2-STELLA,2024-149BT,2026-06-20T04:37:15.289248,15.11860730,.00014284,97.6729,253.6607,96.0742,264.0650,0,U,60533,999,10095,.53784528E-3,.9138E-4,0
LEMUR-2-MARHISYAM,2024-149BW,2026-06-20T05:45:49.560480,15.11312446,.00033099,97.6877,254.1605,112.1725,247.9857,0,U,60536,999,10094,.52802635E-3,.8834E-4,0
LEMUR-2-AHMED-ASRAR,2024-149DN,2026-06-20T04:55:30.598464,15.12767841,.00015287,97.6999,256.2302,34.3772,325.7557,0,U,60576,999,10102,.54202508E-3,.9445E-4,0
LEMUR-2-LLOYD,2024-149DP,2026-06-20T05:23:29.319360,15.09289702,.00051248,97.6744,252.3554,131.3141,228.8530,0,U,60577,999,10085,.53794646E-3,.8514E-4,0
LEMUR-2-SQUIRRELCOMM,2024-149DQ,2026-06-19T17:05:09.801600,15.07173606,.00061077,97.6706,251.6151,53.2688,306.9099,0,U,60578,999,10078,.36888125E-3,.5489E-4,0
LEMUR-2-SIERRINI,2024-149DR,2026-06-20T04:45:15.475392,15.10997152,.00060301,97.6834,253.8036,156.6863,203.4641,0,U,60579,999,10091,.53510735E-3,.8878E-4,0
LEMUR-2-WILSON,2025-009CP,2026-06-20T04:09:48.894912,14.95177642,.00041074,97.7027,249.5857,50.1741,309.9840,0,U,62694,999,7780,.18637045E-3,.199E-4,0
LEMUR-2-STAR-FOX,2025-009CR,2026-06-19T18:09:33.909408,15.02534850,.00040842,97.6953,252.3469,105.6897,254.4778,0,U,62696,999,7794,.46976283E-3,.6185E-4,0
LEMUR-2-ARIANNA,2025-009CU,2026-06-20T05:18:30.781440,15.02521287,.00045186,97.6891,252.5802,109.8072,250.3640,0,U,62699,999,7801,.45010109E-3,.5922E-4,0
